[{"OBJECT_NAME":"IRIDIUM 125","OBJECT_ID":"2017-061K","EPOCH":"2026-03-09T21:31:26.578560","MEAN_MOTION":14.342175,"ECCENTRICITY":0.00017652,"INCLINATION":86.3918,"RA_OF_ASC_NODE":66.8822,"ARG_OF_PERICENTER":75.1905,"MEAN_ANOMALY":284.9486,"EPHEMERIS_TYPE":0,"CLASSIFICATION_TYPE":"U","NORAD_CAT_ID":42964,"ELEMENT_SET_NO":999,"REV_AT_EPOCH":44062,"BSTAR":-1.144702e-6,"MEAN_MOTION_DOT":1.7e-7,"MEAN_MOTION_DDOT":0},{"OBJECT_NAME":"DMSP 5D-2 F13 DEB","OBJECT_ID":"1995-015AZ","EPOCH":"2026-03-09T01:20:33.473472","MEAN_MOTION":14.31077076,"ECCENTRICITY":0.00109868,"INCLINATION":98.6468,"RA_OF_ASC_NODE":95.3254,"ARG_OF_PERICENTER":254.7149,"MEAN_ANOMALY":105.282,"EPHEMERIS_TYPE":0,"CLASSIFICATION_TYPE":"U","NORAD_CAT_ID":40447,"ELEMENT_SET_NO":999,"REV_AT_EPOCH":57194,"BSTAR":0.00096942023,"MEAN_MOTION_DOT":2.512e-5,"MEAN_MOTION_DDOT":0}]
